ICEYE-X43               
1 60539U 24149BZ  26139.20546352  .00001808  00000+0  15099-3 0  9994
2 60539  97.6763 216.5707 0005270 176.6967 183.4292 14.99768716 95772
HAWK-10A                
1 60540U 24149CA  26139.14987318  .00001254  00000+0  11571-3 0  9996
2 60540  97.6894 215.5612 0004222 148.8311 211.3162 14.96410313 95640
UMBRA-09                
1 60541U 24149CB  26139.18696373  .00009583  00000+0  48739-3 0  9998
2 60541  97.6966 225.9194 0001242 123.2738 236.8614 15.17061729 96327
QPS-SAR-8 (AMATERU-IV)  
1 60542U 24149CC  26139.18559264  .00002606  00000+0  19406-3 0  9994
2 60542  97.6649 218.5861 0003165 186.4989 173.6196 15.03796463 95912
ARCTIC WEATHER SATELLITE
1 60543U 24149CD  26139.20575506  .00000530  00000+0  60867-4 0  9997
2 60543  97.6808 210.4980 0002163 163.7036 196.4251 14.89801874 94988
CAPELLA-15 (ACADIA-5)   
1 60544U 24149CE  26139.15748743  .00000790  00000+0  82359-4 0  9995
2 60544  97.6779 212.7830 0004667 159.2782 200.8627 14.92483347 95527
HAWK-10B                
1 60545U 24149CF  26139.14972595  .00001307  00000+0  12035-3 0  9997
2 60545  97.6816 214.9455 0005543 173.3934 186.7362 14.96411401 95644
ICEYE-X39               
1 60546U 24149CG  26139.18840578  .00001113  00000+0  94968-4 0  9998
2 60546  97.6808 216.6075 0002671 173.3537 186.7722 14.99706771 95775
UMBRA-10                
1 60547U 24149CH  26139.18650803  .00009945  00000+0  50549-3 0  9996
2 60547  97.6972 225.9443 0002154 101.4076 258.7399 15.17068623 96337
ICEYE-X33               
1 60548U 24149CJ  26139.16849029  .00003084  00000+0  24685-3 0  9995
2 60548  97.7190 218.4843 0000237 311.2931  48.8273 15.00913169 95854
ICEYE-X40               
1 60549U 24149CK  26139.17682875  .00000966  00000+0  87091-4 0  9998
2 60549  97.6822 216.1406 0005162 154.0035 206.1448 14.97845318 95731
SATELIOT_1              
1 60550U 24149CL  26139.17020611  .00001621  00000+0  14233-3 0  9990
2 60550  97.6762 215.5531 0007168 156.2203 203.9352 14.97943808 95728
BRO-14                  
1 60551U 24149CM  26139.16939181  .00000746  00000+0  71351-4 0  9993
2 60551  97.6880 215.4685 0006553 180.1929 179.9290 14.96118392 95653
SATELIOT_3              
1 60552U 24149CN  26139.21255597  .00001299  00000+0  11516-3 0  9992
2 60552  97.6817 216.3590 0005596 167.3775 192.7588 14.97917294 95743
BRO-15                  
1 60553U 24149CP  26139.15113875  .00000888  00000+0  84100-4 0  9991
2 60553  97.6806 215.0796 0008292 173.9057 186.2266 14.96072278 95663
UM5-RIBAT               
1 60554U 24149CQ  26139.20642918  .00001673  00000+0  13613-3 0  9996
2 60554  97.6657 217.3976 0003538 107.6679 252.4932 15.00891709 95845
UM5-EOSAT               
1 60555U 24149CR  26139.18100166  .00001942  00000+0  15559-3 0  9998
2 60555  97.6657 218.2780 0007324 199.9135 160.1805 15.01298354 95861
LASARSAT                
1 62391U 24247Q   26139.14685896  .00019905  00000+0  42745-3 0  9996
2 62391  44.9757  65.1608 0005504 164.4067 195.6993 15.44419805 78825
CROCUBE                 
1 62394U 24247T   26139.17767380  .00023066  00000+0  46732-3 0  9994
2 62394  44.9735  62.7604 0005257 168.6607 191.4401 15.46046066 78852
TEVEL2-4                
1 63213U 25052D   26138.95953816  .00011765  00000+0  36563-3 0  9990
2 63213  97.3934  35.3230 0002400 159.0387 201.0955 15.33496421 65637
TEVEL2-5                
1 63214U 25052E   26138.65061105  .00010892  00000+0  34047-3 0  9994
2 63214  97.3934  34.9700 0002302 158.8541 201.2797 15.33331220 65580
TEVEL2-6                
1 63215U 25052F   26138.46644105  .00010787  00000+0  33767-3 0  9992
2 63215  97.3937  34.7706 0002397 161.5493 198.5837 15.33288647 65553
TEVEL2-1                
1 63217U 25052H   26139.13837737  .00010326  00000+0  32825-3 0  9997
2 63217  97.3912  35.1001 0001954 172.3515 187.7757 15.32810060 65644
TEVEL2-3                
1 63218U 25052J   26139.19928248  .00010452  00000+0  33168-3 0  9993
2 63218  97.3910  35.1794 0001966 171.3981 188.7295 15.32859906 65652
TEVEL2-2                
1 63219U 25052K   26139.13883150  .00010345  00000+0  32879-3 0  9999
2 63219  97.3907  35.1025 0001879 173.5609 186.5657 15.32816144 65644
TEVEL2-9                
1 63237U 25052AD  26138.42594264  .00008597  00000+0  29029-3 0  9994
2 63237  97.3973  33.8279 0004238 235.7490 124.3350 15.30913495 65470
TEVEL2-7                
1 63238U 25052AE  26138.65751088  .00010147  00000+0  34489-3 0  9999
2 63238  97.3975  33.9866 0004429 235.1952 124.8873 15.30648698 65504
TEVEL2-8                
1 63239U 25052AF  26139.18843575  .00009657  00000+0  32846-3 0  9991
2 63239  97.3972  34.4936 0004366 233.4623 126.6216 15.30640291 65582
HADES-ICM               
1 63492U 25052BN  26138.47705781  .01623772  18257-2  21526-2 0  9998
2 63492  97.3723  43.1467 0011435 187.6548 172.4561 16.07070045 66115
FORESAIL-1 PRIME        
1 66778U 25276DS  26138.47590792  .00003455  00000+0  17124-3 0  9993
2 66778  97.4207 212.2958 0002332 169.5381 190.5902 15.18401791 25894
